<?xml version="1.0" encoding="UTF-8"?>
<ndm xmlns:xsi="http://www.w3.org/2001/XMLSchema-instance" xsi:noNamespaceSchemaLocation="https://sanaregistry.org/r/ndmxml_unqualified/ndmxml-2.0.0-master-2.0.xsd">
<omm id="CCSDS_OMM_VERS" version="2.0">
<header><CREATION_DATE/><ORIGINATOR/></header><body><segment><metadata><OBJECT_NAME>KUIPER-00035</OBJECT_NAME><OBJECT_ID>2025-088AA</OBJECT_ID><CENTER_NAME>EARTH</CENTER_NAME><REF_FRAME>TEME</REF_FRAME><TIME_SYSTEM>UTC</TIME_SYSTEM><MEAN_ELEMENT_THEORY>SGP4</MEAN_ELEMENT_THEORY></metadata><data><meanElements><EPOCH>2025-10-10T18:59:29.539104</EPOCH><MEAN_MOTION>14.79917098</MEAN_MOTION><ECCENTRICITY>.00044517</ECCENTRICITY><INCLINATION>51.9011</INCLINATION><RA_OF_ASC_NODE>56.9547</RA_OF_ASC_NODE><ARG_OF_PERICENTER>294.9650</ARG_OF_PERICENTER><MEAN_ANOMALY>65.0850</MEAN_ANOMALY></meanElements><tleParameters><EPHEMERIS_TYPE>0</EPHEMERIS_TYPE><CLASSIFICATION_TYPE>U</CLASSIFICATION_TYPE><NORAD_CAT_ID>63748</NORAD_CAT_ID><ELEMENT_SET_NO>999</ELEMENT_SET_NO><REV_AT_EPOCH>2531</REV_AT_EPOCH><BSTAR>.60723639E-3</BSTAR><MEAN_MOTION_DOT>.4409E-4</MEAN_MOTION_DOT><MEAN_MOTION_DDOT>0</MEAN_MOTION_DDOT></tleParameters></data></segment></body></omm>
<omm id="CCSDS_OMM_VERS" version="2.0">
<header><CREATION_DATE/><ORIGINATOR/></header><body><segment><metadata><OBJECT_NAME>KUIPER-00037</OBJECT_NAME><OBJECT_ID>2025-088AB</OBJECT_ID><CENTER_NAME>EARTH</CENTER_NAME><REF_FRAME>TEME</REF_FRAME><TIME_SYSTEM>UTC</TIME_SYSTEM><MEAN_ELEMENT_THEORY>SGP4</MEAN_ELEMENT_THEORY></metadata><data><meanElements><EPOCH>2025-10-10T17:24:42.503616</EPOCH><MEAN_MOTION>14.79804864</MEAN_MOTION><ECCENTRICITY>.00066976</ECCENTRICITY><INCLINATION>51.8995</INCLINATION><RA_OF_ASC_NODE>56.2047</RA_OF_ASC_NODE><ARG_OF_PERICENTER>238.2981</ARG_OF_PERICENTER><MEAN_ANOMALY>121.7329</MEAN_ANOMALY></meanElements><tleParameters><EPHEMERIS_TYPE>0</EPHEMERIS_TYPE><CLASSIFICATION_TYPE>U</CLASSIFICATION_TYPE><NORAD_CAT_ID>63749</NORAD_CAT_ID><ELEMENT_SET_NO>999</ELEMENT_SET_NO><REV_AT_EPOCH>2610</REV_AT_EPOCH><BSTAR>.55206467E-3</BSTAR><MEAN_MOTION_DOT>.3977E-4</MEAN_MOTION_DOT><MEAN_MOTION_DDOT>0</MEAN_MOTION_DDOT></tleParameters></data></segment></body></omm>
<omm id="CCSDS_OMM_VERS" version="2.0">
<header><CREATION_DATE/><ORIGINATOR/></header><body><segment><metadata><OBJECT_NAME>KUIPER-00038</OBJECT_NAME><OBJECT_ID>2025-088AC</OBJECT_ID><CENTER_NAME>EARTH</CENTER_NAME><REF_FRAME>TEME</REF_FRAME><TIME_SYSTEM>UTC</TIME_SYSTEM><MEAN_ELEMENT_THEORY>SGP4</MEAN_ELEMENT_THEORY></metadata><data><meanElements><EPOCH>2025-10-10T17:10:26.878368</EPOCH><MEAN_MOTION>14.77025254</MEAN_MOTION><ECCENTRICITY>.00054913</ECCENTRICITY><INCLINATION>51.9024</INCLINATION><RA_OF_ASC_NODE>40.9850</RA_OF_ASC_NODE><ARG_OF_PERICENTER>308.2897</ARG_OF_PERICENTER><MEAN_ANOMALY>51.7570</MEAN_ANOMALY></meanElements><tleParameters><EPHEMERIS_TYPE>0</EPHEMERIS_TYPE><CLASSIFICATION_TYPE>U</CLASSIFICATION_TYPE><NORAD_CAT_ID>63750</NORAD_CAT_ID><ELEMENT_SET_NO>999</ELEMENT_SET_NO><REV_AT_EPOCH>2531</REV_AT_EPOCH><BSTAR>.42123686E-3</BSTAR><MEAN_MOTION_DOT>.2783E-4</MEAN_MOTION_DOT><MEAN_MOTION_DDOT>0</MEAN_MOTION_DDOT></tleParameters></data></segment></body></omm>
<omm id="CCSDS_OMM_VERS" version="2.0">
<header><CREATION_DATE/><ORIGINATOR/></header><body><segment><metadata><OBJECT_NAME>KUIPER-00039</OBJECT_NAME><OBJECT_ID>2025-134A</OBJECT_ID><CENTER_NAME>EARTH</CENTER_NAME><REF_FRAME>TEME</REF_FRAME><TIME_SYSTEM>UTC</TIME_SYSTEM><MEAN_ELEMENT_THEORY>SGP4</MEAN_ELEMENT_THEORY></metadata><data><meanElements><EPOCH>2025-10-10T23:37:05.241216</EPOCH><MEAN_MOTION>14.79923856</MEAN_MOTION><ECCENTRICITY>.001239</ECCENTRICITY><INCLINATION>51.8994</INCLINATION><RA_OF_ASC_NODE>175.0729</RA_OF_ASC_NODE><ARG_OF_PERICENTER>155.8514</ARG_OF_PERICENTER><MEAN_ANOMALY>204.3031</MEAN_ANOMALY></meanElements><tleParameters><EPHEMERIS_TYPE>0</EPHEMERIS_TYPE><CLASSIFICATION_TYPE>U</CLASSIFICATION_TYPE><NORAD_CAT_ID>64500</NORAD_CAT_ID><ELEMENT_SET_NO>999</ELEMENT_SET_NO><REV_AT_EPOCH>1790</REV_AT_EPOCH><BSTAR>.62756642E-3</BSTAR><MEAN_MOTION_DOT>.4568E-4</MEAN_MOTION_DOT><MEAN_MOTION_DDOT>0</MEAN_MOTION_DDOT></tleParameters></data></segment></body></omm>
<omm id="CCSDS_OMM_VERS" version="2.0">
<header><CREATION_DATE/><ORIGINATOR/></header><body><segment><metadata><OBJECT_NAME>KUIPER-00040</OBJECT_NAME><OBJECT_ID>2025-134B</OBJECT_ID><CENTER_NAME>EARTH</CENTER_NAME><REF_FRAME>TEME</REF_FRAME><TIME_SYSTEM>UTC</TIME_SYSTEM><MEAN_ELEMENT_THEORY>SGP4</MEAN_ELEMENT_THEORY></metadata><data><meanElements><EPOCH>2025-10-10T18:27:29.030400</EPOCH><MEAN_MOTION>14.79932413</MEAN_MOTION><ECCENTRICITY>.00189688</ECCENTRICITY><INCLINATION>51.9017</INCLINATION><RA_OF_ASC_NODE>187.1888</RA_OF_ASC_NODE><ARG_OF_PERICENTER>134.4433</ARG_OF_PERICENTER><MEAN_ANOMALY>225.8085</MEAN_ANOMALY></meanElements><tleParameters><EPHEMERIS_TYPE>0</EPHEMERIS_TYPE><CLASSIFICATION_TYPE>U</CLASSIFICATION_TYPE><NORAD_CAT_ID>64501</NORAD_CAT_ID><ELEMENT_SET_NO>999</ELEMENT_SET_NO><REV_AT_EPOCH>1771</REV_AT_EPOCH><BSTAR>-.10402534E-3</BSTAR><MEAN_MOTION_DOT>-.1022E-4</MEAN_MOTION_DOT><MEAN_MOTION_DDOT>0</MEAN_MOTION_DDOT></tleParameters></data></segment></body></omm>
<omm id="CCSDS_OMM_VERS" version="2.0">
<header><CREATION_DATE/><ORIGINATOR/></header><body><segment><metadata><OBJECT_NAME>KUIPER-00041</OBJECT_NAME><OBJECT_ID>2025-134C</OBJECT_ID><CENTER_NAME>EARTH</CENTER_NAME><REF_FRAME>TEME</REF_FRAME><TIME_SYSTEM>UTC</TIME_SYSTEM><MEAN_ELEMENT_THEORY>SGP4</MEAN_ELEMENT_THEORY></metadata><data><meanElements><EPOCH>2025-10-10T18:26:08.070144</EPOCH><MEAN_MOTION>14.79948684</MEAN_MOTION><ECCENTRICITY>.0015124</ECCENTRICITY><INCLINATION>51.8992</INCLINATION><RA_OF_ASC_NODE>188.5528</RA_OF_ASC_NODE><ARG_OF_PERICENTER>128.9105</ARG_OF_PERICENTER><MEAN_ANOMALY>231.3209</MEAN_ANOMALY></meanElements><tleParameters><EPHEMERIS_TYPE>0</EPHEMERIS_TYPE><CLASSIFICATION_TYPE>U</CLASSIFICATION_TYPE><NORAD_CAT_ID>64502</NORAD_CAT_ID><ELEMENT_SET_NO>999</ELEMENT_SET_NO><REV_AT_EPOCH>1769</REV_AT_EPOCH><BSTAR>.74032415E-3</BSTAR><MEAN_MOTION_DOT>.5436E-4</MEAN_MOTION_DOT><MEAN_MOTION_DDOT>0</MEAN_MOTION_DDOT></tleParameters></data></segment></body></omm>
<omm id="CCSDS_OMM_VERS" version="2.0">
<header><CREATION_DATE/><ORIGINATOR/></header><body><segment><metadata><OBJECT_NAME>KUIPER-00042</OBJECT_NAME><OBJECT_ID>2025-134D</OBJECT_ID><CENTER_NAME>EARTH</CENTER_NAME><REF_FRAME>TEME</REF_FRAME><TIME_SYSTEM>UTC</TIME_SYSTEM><MEAN_ELEMENT_THEORY>SGP4</MEAN_ELEMENT_THEORY></metadata><data><meanElements><EPOCH>2025-10-10T16:54:21.559680</EPOCH><MEAN_MOTION>14.79879692</MEAN_MOTION><ECCENTRICITY>.00140532</ECCENTRICITY><INCLINATION>51.8986</INCLINATION><RA_OF_ASC_NODE>184.8322</RA_OF_ASC_NODE><ARG_OF_PERICENTER>136.9150</ARG_OF_PERICENTER><MEAN_ANOMALY>223.2915</MEAN_ANOMALY></meanElements><tleParameters><EPHEMERIS_TYPE>0</EPHEMERIS_TYPE><CLASSIFICATION_TYPE>U</CLASSIFICATION_TYPE><NORAD_CAT_ID>64503</NORAD_CAT_ID><ELEMENT_SET_NO>999</ELEMENT_SET_NO><REV_AT_EPOCH>1774</REV_AT_EPOCH><BSTAR>.74983471E-3</BSTAR><MEAN_MOTION_DOT>.5498E-4</MEAN_MOTION_DOT><MEAN_MOTION_DDOT>0</MEAN_MOTION_DDOT></tleParameters></data></segment></body></omm>
<omm id="CCSDS_OMM_VERS" version="2.0">
<header><CREATION_DATE/><ORIGINATOR/></header><body><segment><metadata><OBJECT_NAME>KUIPER-00043</OBJECT_NAME><OBJECT_ID>2025-134E</OBJECT_ID><CENTER_NAME>EARTH</CENTER_NAME><REF_FRAME>TEME</REF_FRAME><TIME_SYSTEM>UTC</TIME_SYSTEM><MEAN_ELEMENT_THEORY>SGP4</MEAN_ELEMENT_THEORY></metadata><data><meanElements><EPOCH>2025-10-10T23:34:45.299136</EPOCH><MEAN_MOTION>14.79949965</MEAN_MOTION><ECCENTRICITY>.000466</ECCENTRICITY><INCLINATION>51.9012</INCLINATION><RA_OF_ASC_NODE>176.0337</RA_OF_ASC_NODE><ARG_OF_PERICENTER>128.9295</ARG_OF_PERICENTER><MEAN_ANOMALY>231.2083</MEAN_ANOMALY></meanElements><tleParameters><EPHEMERIS_TYPE>0</EPHEMERIS_TYPE><CLASSIFICATION_TYPE>U</CLASSIFICATION_TYPE><NORAD_CAT_ID>64504</NORAD_CAT_ID><ELEMENT_SET_NO>999</ELEMENT_SET_NO><REV_AT_EPOCH>1789</REV_AT_EPOCH><BSTAR>.55039983E-3</BSTAR><MEAN_MOTION_DOT>.3978E-4</MEAN_MOTION_DOT><MEAN_MOTION_DDOT>0</MEAN_MOTION_DDOT></tleParameters></data></segment></body></omm>

</ndm>
