KUIPER-00035            
1 63748U 25088AA  25283.79131411  .00004409  00000+0  60724-3 0  9996
2 63748  51.9011  56.9547 0004451 294.9650  65.0850 14.79917098 25312
KUIPER-00037            
1 63749U 25088AB  25283.72549194  .00003977  00000+0  55206-3 0  9999
2 63749  51.8995  56.2047 0006697 238.2981 121.7329 14.79804864 26108
KUIPER-00038            
1 63750U 25088AC  25283.71558887  .00002783  00000+0  42124-3 0  9998
2 63750  51.9024  40.9850 0005491 308.2897  51.7570 14.77025254 25319
KUIPER-00039            
1 64500U 25134A   25283.98408844  .00004568  00000+0  62757-3 0  9997
2 64500  51.8994 175.0729 0012390 155.8514 204.3031 14.79923856 17902
KUIPER-00040            
1 64501U 25134B   25283.76908600 -.00001022  00000+0 -10403-3 0  9994
2 64501  51.9017 187.1888 0018968 134.4433 225.8085 14.79932413 17715
KUIPER-00041            
1 64502U 25134C   25283.76814896  .00005436  00000+0  74032-3 0  9997
2 64502  51.8992 188.5528 0015124 128.9105 231.3209 14.79948684 17692
KUIPER-00042            
1 64503U 25134D   25283.70441620  .00005498  00000+0  74983-3 0  9996
2 64503  51.8986 184.8322 0014053 136.9150 223.2915 14.79879692 17748
KUIPER-00043            
1 64504U 25134E   25283.98246874  .00003978  00000+0  55040-3 0  9995
2 64504  51.9012 176.0337 0004660 128.9295 231.2083 14.79949965 17895
